NOAA-12
1 21263U 91032A   09327.78045695  .00000034  00000-0  33398-4 0 03467
2 21263 098.7702 335.9233 0013079 046.1831 314.0414 14.25603209963131
MET-3/5
1 21655U 91056A   09327.91216663  .00000051  00000-0  10000-3 0 06891
2 21655 082.5527 093.6687 0014089 137.9645 222.2559 13.17021632878653
MET-2/21
1 22782U 93055A   09327.70364962  .00000067  00000-0  47592-4 0  6262
2 22782 082.5493 055.4685 0020884 258.6465 101.2347 13.83642196819666
OKEAN-4
1 23317U 94066A   09327.76987870  .00000012  00000-0 -14669-5 0 00822
2 23317 082.5395 185.5655 0021384 195.3597 164.6977 14.82739403816019
NOAA-14
1 23455U 94089A   09327.76235000  .00000231  00000-0  14548-3 0 08397
2 23455 098.8966 044.7776 0010218 099.0751 261.1576 14.13774942768477
NOAA-15
1 25338U 98030A   09327.60658090 -.00000106  00000-0 -27064-4 0 01664
2 25338 098.6001 313.4468 0009966 317.2077 042.8307 14.24793193599474
RESURS
1 25394U 98043A   09328.62401315 -.00000011  00000-0  12795-4 0  3659
2 25394 098.3218 352.6857 0002296 090.7643 269.3803 14.24190928591231
FENGYUN1
1 25730U 99025A   09328.81471634  .00001394  00000-0  84141-3 0  9086
2 25730 098.7708 294.2828 0022275 116.9188 243.4238 14.08090804542927
OKEAN-0
1 25860U 99039A   09328.76175789  .00000042  00000-0  13759-4 0  8458
2 25860 097.8063 303.7389 0001688 052.4575 307.6786 14.73598933556791
NOAA-16
1 26536U 00055A   09327.59798902 -.00000147  00000-0 -54004-4 0 06462
2 26536 099.1783 335.1464 0010530 190.1863 169.9105 14.12537440472807
NOAA-17
1 27453U 02032A   09327.77257928  .00000101  00000-0  61891-4 0 06398
2 27453 098.4627 021.1723 0011933 022.9993 337.1732 14.24109133385466
NOAA-18
1 28654U 05018A   09327.77771450 -.00000040  00000-0  27386-5 0 01255
2 28654 098.9263 269.9018 0013517 273.1613 086.8030 14.11303332232462
NOAA-19
1 33591U 09005A   09327.79212678 -.00000138  00000-0 -52882-4 0 03311
2 33591 098.7660 269.5291 0014467 147.9660 212.2400 14.11002235040945
HUBBLE
1 20580U 90037B   09327.91023735  .00000363  00000-0  15029-4 0  4803
2 20580 028.4678 139.8263 0003384 179.5615 180.4987 15.00857635873876
ISS
1 25544U 98067A   09329.02698647  .00075692  00000-0  47620-3 0   481
2 25544 051.6439 200.4034 0007446 015.9063 137.6737 15.75986051631290
CO-58
1 28895U 05043F   09327.63356092  .00000172  00000-0  45466-4 0 04500
2 28895 098.0374 213.5854 0017419 206.7113 153.3208 14.59817515216990
FALCON
1 30776U 07006E   09327.95790901  .00000521  00000-0  40599-4 0 07107
2 30776 035.4335 209.9753 0001425 263.4685 096.5871 15.03374739149157
