Satellite: NOAA-12
Catalog number: 21263
Epoch time:      09327.78045695
Element set:    0346
Inclination:      098.7702 deg
RA of node:       335.9233 deg
Eccentricity:    0.0013079
Arg of perigee:   046.1831 deg
Mean anomaly:     314.0414 deg
Mean motion:   14.25603209 rev/day
Decay rate:        3.4e-07 rev/day^2
Epoch rev:           96313
Checksum:              288

Satellite: MET-3/5
Catalog number: 21655
Epoch time:      09327.91216663
Element set:    0689
Inclination:      082.5527 deg
RA of node:       093.6687 deg
Eccentricity:    0.0014089
Arg of perigee:   137.9645 deg
Mean anomaly:     222.2559 deg
Mean motion:   13.17021632 rev/day
Decay rate:        5.1e-07 rev/day^2
Epoch rev:           87865
Checksum:              334

Satellite: MET-2/21
Catalog number: 22782
Epoch time:      09327.70364962
Element set:     626
Inclination:      082.5493 deg
RA of node:       055.4685 deg
Eccentricity:    0.0020884
Arg of perigee:   258.6465 deg
Mean anomaly:     101.2347 deg
Mean motion:   13.83642196 rev/day
Decay rate:        6.7e-07 rev/day^2
Epoch rev:           81966
Checksum:              335

Satellite: OKEAN-4
Catalog number: 23317
Epoch time:      09327.76987870
Element set:    0082
Inclination:      082.5395 deg
RA of node:       185.5655 deg
Eccentricity:    0.0021384
Arg of perigee:   195.3597 deg
Mean anomaly:     164.6977 deg
Mean motion:   14.82739403 rev/day
Decay rate:        1.2e-07 rev/day^2
Epoch rev:           81601
Checksum:              338

Satellite: NOAA-14
Catalog number: 23455
Epoch time:      09327.76235000
Element set:    0839
Inclination:      098.8966 deg
RA of node:       044.7776 deg
Eccentricity:    0.0010218
Arg of perigee:   099.0751 deg
Mean anomaly:     261.1576 deg
Mean motion:   14.13774942 rev/day
Decay rate:       2.31e-06 rev/day^2
Epoch rev:           76847
Checksum:              330

Satellite: NOAA-15
Catalog number: 25338
Epoch time:      09327.60658090
Element set:    0166
Inclination:      098.6001 deg
RA of node:       313.4468 deg
Eccentricity:    0.0009966
Arg of perigee:   317.2077 deg
Mean anomaly:     042.8307 deg
Mean motion:   14.24793193 rev/day
Decay rate:      -1.06e-06 rev/day^2
Epoch rev:           59947
Checksum:              324

Satellite: RESURS
Catalog number: 25394
Epoch time:      09328.62401315
Element set:     365
Inclination:      098.3218 deg
RA of node:       352.6857 deg
Eccentricity:    0.0002296
Arg of perigee:   090.7643 deg
Mean anomaly:     269.3803 deg
Mean motion:   14.24190928 rev/day
Decay rate:       -1.1e-07 rev/day^2
Epoch rev:           59123
Checksum:              300

Satellite: FENGYUN1
Catalog number: 25730
Epoch time:      09328.81471634
Element set:     908
Inclination:      098.7708 deg
RA of node:       294.2828 deg
Eccentricity:    0.0022275
Arg of perigee:   116.9188 deg
Mean anomaly:     243.4238 deg
Mean motion:   14.08090804 rev/day
Decay rate:      1.394e-05 rev/day^2
Epoch rev:           54292
Checksum:              324

Satellite: OKEAN-0
Catalog number: 25860
Epoch time:      09328.76175789
Element set:     845
Inclination:      097.8063 deg
RA of node:       303.7389 deg
Eccentricity:    0.0001688
Arg of perigee:   052.4575 deg
Mean anomaly:     307.6786 deg
Mean motion:   14.73598933 rev/day
Decay rate:        4.2e-07 rev/day^2
Epoch rev:           55679
Checksum:              365

Satellite: NOAA-16
Catalog number: 26536
Epoch time:      09327.59798902
Element set:    0646
Inclination:      099.1783 deg
RA of node:       335.1464 deg
Eccentricity:    0.0010530
Arg of perigee:   190.1863 deg
Mean anomaly:     169.9105 deg
Mean motion:   14.12537440 rev/day
Decay rate:      -1.47e-06 rev/day^2
Epoch rev:           47280
Checksum:              321

Satellite: NOAA-17
Catalog number: 27453
Epoch time:      09327.77257928
Element set:    0639
Inclination:      098.4627 deg
RA of node:       021.1723 deg
Eccentricity:    0.0011933
Arg of perigee:   022.9993 deg
Mean anomaly:     337.1732 deg
Mean motion:   14.24109133 rev/day
Decay rate:       1.01e-06 rev/day^2
Epoch rev:           38546
Checksum:              310

Satellite: NOAA-18
Catalog number: 28654
Epoch time:      09327.77771450
Element set:    0125
Inclination:      098.9263 deg
RA of node:       269.9018 deg
Eccentricity:    0.0013517
Arg of perigee:   273.1613 deg
Mean anomaly:     086.8030 deg
Mean motion:   14.11303332 rev/day
Decay rate:       -4.0e-07 rev/day^2
Epoch rev:           23246
Checksum:              292

Satellite: NOAA-19
Catalog number: 33591
Epoch time:      09327.79212678
Element set:    0331
Inclination:      098.7660 deg
RA of node:       269.5291 deg
Eccentricity:    0.0014467
Arg of perigee:   147.9660 deg
Mean anomaly:     212.2400 deg
Mean motion:   14.11002235 rev/day
Decay rate:      -1.38e-06 rev/day^2
Epoch rev:           04094
Checksum:              296

/EX
SB KEPS @ AMSAT  $ORB09328.M
Orbital Elements  09328.MISC

HR AMSAT ORBITAL ELEMENTS FOR MANNED AND MISCELLANEOUS SATELLITES
FROM WA5QGD FORT WORTH,TX November 24, 2009
Send Subscribe/unsubscribe to KEPS at http://www.amsat.org/mailman/listinfo/keps
BID: ORB09328.M
TO ALL RADIO AMATEURS BT

Satellite: HUBBLE
Catalog number: 20580
Epoch time:      09327.91023735
Element set:     480
Inclination:      028.4678 deg
RA of node:       139.8263 deg
Eccentricity:    0.0003384
Arg of perigee:   179.5615 deg
Mean anomaly:     180.4987 deg
Mean motion:   15.00857635 rev/day
Decay rate:       3.63e-06 rev/day^2
Epoch rev:           87387
Checksum:              328

Satellite: ISS
Catalog number: 25544
Epoch time:      09329.02698647
Element set:      48
Inclination:      051.6439 deg
RA of node:       200.4034 deg
Eccentricity:    0.0007446
Arg of perigee:   015.9063 deg
Mean anomaly:     137.6737 deg
Mean motion:   15.75986051 rev/day
Decay rate:     7.5692e-04 rev/day^2
Epoch rev:           63129
Checksum:              321

Satellite: CO-58
Catalog number: 28895
Epoch time:      09327.63356092
Element set:    0450
Inclination:      098.0374 deg
RA of node:       213.5854 deg
Eccentricity:    0.0017419
Arg of perigee:   206.7113 deg
Mean anomaly:     153.3208 deg
Mean motion:   14.59817515 rev/day
Decay rate:       1.72e-06 rev/day^2
Epoch rev:           21699
Checksum:              325

Satellite: FALCON
Catalog number: 30776
Epoch time:      09327.95790901
Element set:    0710
Inclination:      035.4335 deg
RA of node:       209.9753 deg
Eccentricity:    0.0001425
Arg of perigee:   263.4685 deg
Mean anomaly:     096.5871 deg
Mean motion:   15.03374739 rev/day
Decay rate:       5.21e-06 rev/day^2
Epoch rev:           14915
Checksum:              311

